NOAA 19
1 33591U 09005A   24101.81853158  .00000224  00000-0  14450-3 0  9997
2 33591  99.0542 156.8872 0014812 120.9144 239.3485 14.12964722782117